H1 CPF 01  gfz 2021 02 11 01  5421 tandemx   
H2 1003001  6202 36605    2021 02 11 00 59 42 2021 02 16 00 00 42   120 1 1  0 0 0
H9
10 0 59256  36702.000000  0    1501745.520  -4354542.624  -5129922.185
10 0 59256  36822.000000  0    1072913.694  -3756573.323  -5681096.703
10 0 59256  36942.000000  0     636565.722  -3085843.510  -6132982.022
10 0 59256  37062.000000  0     201455.645  -2353984.974  -6477774.326
10 0 59256  37182.000000  0    -223912.206  -1573811.990  -6709532.335
10 0 59256  37302.000000  0    -631444.863   -759096.855  -6824269.604
10 0 59256  37422.000000  0   -1013609.821     75670.485  -6820015.652
10 0 59256  37542.000000  0   -1363570.637    915534.483  -6696844.972
10 0 59256  37662.000000  0   -1675306.340   1745334.845  -6456875.672
10 0 59256  37782.000000  0   -1943712.602   2549973.149  -6104236.865
10 0 59256  37902.000000  0   -2164685.054   3314682.376  -5645006.744
10 0 59256  38022.000000  0   -2335182.337   4025295.884  -5087118.066
10 0 59256  38142.000000  0   -2453268.488   4668511.271  -4440233.126
10 0 59256  38262.000000  0   -2518133.460   5232144.434  -3715586.405
10 0 59256  38382.000000  0   -2530090.110   5705366.605  -2925797.445
10 0 59256  38502.000000  0   -2490547.952   6078921.209  -2084658.574
10 0 59256  38622.000000  0   -2401964.440   6345316.288  -1206896.610
10 0 59256  38742.000000  0   -2267773.829   6498983.179   -307913.441
10 0 59256  38862.000000  0   -2092296.019   6536401.495    596486.736
10 0 59256  38982.000000  0   -1880626.319   6456185.931   1490384.790
10 0 59256  39102.000000  0   -1638507.218   6259125.257   2358038.372
10 0 59256  39222.000000  0   -1372187.488   5948177.008   3184167.350
10 0 59256  39342.000000  0   -1088273.039   5528419.770   3954228.937
10 0 59256  39462.000000  0    -793573.358   5006964.600   4654678.633
10 0 59256  39582.000000  0    -494944.990   4392824.722   5273212.078
10 0 59256  39702.000000  0    -199136.808   3696749.221   5798977.919
10 0 59256  39822.000000  0      87356.894   2931027.334   6222765.127
10 0 59256  39942.000000  0     358434.641   2109263.312   6537158.894
10 0 59256  40062.000000  0     608514.331   1246130.197   6736664.369
10 0 59256  40182.000000  0     832645.708    357104.516   6817796.925
10 0 59256  40302.000000  0    1026606.607   -541810.848   6779138.544
10 0 59256  40422.000000  0    1186981.781  -1434373.926   6621362.365
10 0 59256  40542.000000  0    1311223.158  -2304396.851   6347221.978
10 0 59256  40662.000000  0    1397690.467  -3136039.893   5961506.986
10 0 59256  40782.000000  0    1445671.195  -3914102.336   5470963.672
10 0 59256  40902.000000  0    1455380.046  -4624302.926   4884181.473
10 0 59256  41022.000000  0    1427938.840  -5253546.489   4211449.244
10 0 59256  41142.000000  0    1365336.247  -5790174.695   3464580.485
10 0 59256  41262.000000  0    1270367.962  -6224191.988   2656706.552
10 0 59256  41382.000000  0    1146558.206  -6547460.202   1802044.981
10 0 59256  41502.000000  0     998064.324  -6753860.425    915646.705
10 0 59256  41622.000000  0     829567.500  -6839416.397     13125.053
10 0 59256  41742.000000  0     646150.602  -6802375.947   -889628.968
10 0 59256  41862.000000  0     453166.898  -6643244.195  -1776737.262
10 0 59256  41982.000000  0     256105.184  -6364770.733  -2632621.532
10 0 59256  42102.000000  0      60453.538  -5971893.675  -3442282.068
10 0 59256  42222.000000  0    -128435.245  -5471641.304  -4191563.925
10 0 59256  42342.000000  0    -305473.155  -4872992.821  -4867403.867
10 0 59256  42462.000000  0    -465957.960  -4186704.460  -5458052.670
10 0 59256  42582.000000  0    -605683.185  -3425105.564  -5953271.427
10 0 59256  42702.000000  0    -721034.489  -2601868.974  -6344498.704
10 0 59256  42822.000000  0    -809071.179  -1731760.925  -6624987.120
10 0 59256  42942.000000  0    -867591.491   -830375.890  -6789908.383
10 0 59256  43062.000000  0    -895180.845     86139.756  -6836427.990
10 0 59256  43182.000000  0    -891241.762   1001371.422  -6763747.502
10 0 59256  43302.000000  0    -856005.778   1898922.356  -6573116.406
10 0 59256  43422.000000  0    -790527.317   2762699.751  -6267812.951
10 0 59256  43542.000000  0    -696658.956   3577197.654  -5853095.308
10 0 59256  43662.000000  0    -577008.711   4327773.578  -5336120.539
10 0 59256  43782.000000  0    -434879.581   5000912.508  -4725832.271
10 0 59256  43902.000000  0    -274193.037   5584475.948  -4032817.472
10 0 59256  44022.000000  0     -99397.072   6067929.650  -3269132.131
10 0 59256  44142.000000  0      84639.643   6442544.570  -2448098.800
10 0 59256  44262.000000  0     272745.152   6701567.225  -1584078.376
10 0 59256  44382.000000  0     459570.642   6840354.335   -692218.994
10 0 59256  44502.000000  0     639723.173   6856467.044    211813.238
10 0 59256  44622.000000  0     807901.431   6749721.752   1112116.243
10 0 59256  44742.000000  0     959030.323   6522194.892   1992840.211
10 0 59256  44862.000000  0    1088389.808   6178182.258   2838474.945
10 0 59256  44982.000000  0    1191736.319   5724115.522   3634130.341
10 0 59256  45102.000000  0    1265413.944   5168435.233   4365804.993
10 0 59256  45222.000000  0    1306453.491   4521426.300   5020637.787
10 0 59256  45342.000000  0    1312652.032   3795014.054   5587135.379
10 0 59256  45462.000000  0    1282637.208   3002535.130   6055367.936
10 0 59256  45582.000000  0    1215912.134   2158486.044   6417139.037
10 0 59256  45702.000000  0    1112880.347   1278252.312   6666123.751
10 0 59256  45822.000000  0     974850.961    377824.123   6797972.919
10 0 59256  45942.000000  0     804023.745   -526493.876   6810383.512
10 0 59256  46062.000000  0     603454.122  -1418376.958   6703137.996
10 0 59256  46182.000000  0     376998.403  -2281775.167   6478108.225
10 0 59256  46302.000000  0     129239.974  -3101202.660   6139225.241
10 0 59256  46422.000000  0    -134601.673  -3862017.377   5692412.617
10 0 59256  46542.000000  0    -408777.036  -4550683.336   5145487.294
10 0 59256  46662.000000  0    -687126.627  -5155015.676   4508031.223
10 0 59256  46782.000000  0    -963214.426  -5664406.346   3791230.547
10 0 59256  46902.000000  0   -1230471.118  -6070020.553   3007681.072
10 0 59256  47022.000000  0   -1482343.290  -6364958.993   2171167.066
10 0 59256  47142.000000  0   -1712445.651  -6544384.789   1296417.166
10 0 59256  47262.000000  0   -1914713.516  -6605609.722    398838.746
10 0 59256  47382.000000  0   -2083548.761  -6548136.335   -505761.882
10 0 59256  47502.000000  0   -2213957.005  -6373656.057  -1401466.670
10 0 59256  47622.000000  0   -2301672.901  -6086003.471  -2272534.284
10 0 59256  47742.000000  0   -2343270.431  -5691068.045  -3103684.048
10 0 59256  47862.000000  0   -2336255.050  -5196664.987  -3880369.153
10 0 59256  47982.000000  0   -2279135.299  -4612369.324  -4589032.063
10 0 59256  48102.000000  0   -2171472.869  -3949319.517  -5217337.299
10 0 59256  48222.000000  0   -2013910.752  -3219996.150  -5754379.014
10 0 59256  48342.000000  0   -1808179.159  -2437980.393  -6190861.420
10 0 59256  48462.000000  0   -1557078.601  -1617696.520  -6519249.121
10 0 59256  48582.000000  0   -1264441.438   -774144.914  -6733885.175
10 0 59256  48702.000000  0    -935073.685     77369.470  -6831077.913
10 0 59256  48822.000000  0    -574676.800    921508.950  -6809156.894
10 0 59256  48942.000000  0    -189750.564   1743172.100  -6668498.242
10 0 59256  49062.000000  0     212520.105   2527756.561  -6411518.998
10 0 59256  49182.000000  0     624395.258   3261413.739  -6042642.258
10 0 59256  49302.000000  0    1037725.430   3931291.491  -5568228.783
10 0 59256  49422.000000  0    1444108.171   4525759.119  -4996477.347
10 0 59256  49542.000000  0    1835054.930   5034613.877  -4337295.355
10 0 59256  49662.000000  0    2202165.185   5449264.089  -3602137.162
10 0 59256  49782.000000  0    2537303.678   5762883.365  -2803813.430
10 0 59256  49902.000000  0    2832777.861   5970534.180  -1956273.867
10 0 59256  50022.000000  0    3081511.362   6069256.436  -1074365.113
10 0 59256  50142.000000  0    3277208.195   6058117.460   -173567.799
10 0 59256  50262.000000  0    3414503.087   5938220.981    730281.061
10 0 59256  50382.000000  0    3489094.701   5712675.065   1621273.506
10 0 59256  50502.000000  0    3497858.617   5386520.662   2483718.571
10 0 59256  50622.000000  0    3438935.794   4966621.618   3302427.464
10 0 59256  50742.000000  0    3311795.506   4461516.638   4062988.485
10 0 59256  50862.000000  0    3117271.305   3881241.022   4752025.134
10 0 59256  50982.000000  0    2857565.226   3237119.902   5357435.386
10 0 59256  51102.000000  0    2536224.301   2541538.896   5868600.778
10 0 59256  51222.000000  0    2158092.646   1807700.961   6276567.892
10 0 59256  51342.000000  0    1729236.613   1049370.985   6574200.844
10 0 59256  51462.000000  0    1256844.440    280614.532   6756299.121
10 0 59256  51582.000000  0     749104.096   -484462.212   6819682.509
10 0 59256  51702.000000  0     215060.984  -1231970.932   6763244.801
10 0 59256  51822.000000  0    -335543.532  -1948493.555   6587971.788
10 0 59256  51942.000000  0    -892449.880  -2621323.166   6296924.522
10 0 59256  52062.000000  0   -1445070.188  -3238689.713   5895187.500
10 0 59256  52182.000000  0   -1982686.797  -3789966.867   5389785.234
10 0 59256  52302.000000  0   -2494660.184  -4265859.015   4789567.664
10 0 59256  52422.000000  0   -2970642.364  -4658564.743   4105061.872
10 0 59256  52542.000000  0   -3400789.336  -4961911.601   3348290.743
10 0 59256  52662.000000  0   -3775966.451  -5171458.999   2532562.216
10 0 59256  52782.000000  0   -4087943.069  -5284567.515   1672234.240
10 0 59256  52902.000000  0   -4329573.316  -5300432.668    782457.933
10 0 59256  53022.000000  0   -4494957.074  -5220081.189   -121095.845
10 0 59256  53142.000000  0   -4579577.453  -5046330.478  -1022520.706
99
